IRIDIUM 26              
1 24903U 97043A   25125.43493706  .00000629  00000+0  20519-3 0  9998
2 24903  86.3928 128.5850 0002153  93.5259 266.6185 14.37109549451073
IRIDIUM 22              
1 24907U 97043E   25125.46887934  .00000524  00000+0  17381-3 0  9992
2 24907  86.3938 132.0722 0002321  91.3432 268.8030 14.35927475450630
DUMMY MASS 2            
1 24926U 97048B   25124.83196351  .00000564  00000+0  60276-4 0  9990
2 24926  86.3358 156.9721 0005843 328.2513  31.8359 14.86704519498468
IRIDIUM 29              
1 24944U 97051A   25125.50686377  .00000541  00000+0  17813-3 0  9994
2 24944  86.3980 161.7945 0002484  89.8110 270.3372 14.36432040447362
IRIDIUM 33              
1 24946U 97051C   25125.37226191  .00000404  00000+0  13525-3 0  9999
2 24946  86.3894 161.1076 0006728 202.4162 157.6741 14.34867275446616
IRIDIUM 36              
1 24967U 97056C   25124.71224037  .00000571  00000+0  18397-3 0  9998
2 24967  86.4022 191.2438 0002392 100.3836 259.7632 14.37575495445970
